{
  "type": "FeatureCollection",
  "features": [
    {
      "type": "Feature",
      "properties": {
        "norad_id": 30144,
        "name": "FENGYUN 1C DEB",
        "group": "fengyun-1c-debris",
        "lat": -38.91144177469949,
        "lon": -16.93666931976851,
        "alt_km": 841.6516864862779,
        "timestamp": "2025-12-08T19:31:49.083816+00:00",
        "meta_object_name": "FENGYUN 1C DEB",
        "meta_object_id": "1999-025SZ",
        "meta_epoch": "2025-12-08T05:58:16.194720",
        "meta_mean_motion": 13.91808279,
        "meta_eccentricity": 0.01258781,
        "meta_inclination": 99.0098,
        "meta_ra_of_asc_node": 335.1562,
        "meta_arg_of_pericenter": 303.1358,
        "meta_mean_anomaly": 67.7825,
        "meta_ephemeris_type": 0,
        "meta_classification_type": "U",
        "meta_norad_cat_id": 30144,
        "meta_element_set_no": 999,
        "meta_rev_at_epoch": 95778,
        "meta_bstar": 0.00096231058,
        "meta_mean_motion_dot": 1.262e-05,
        "meta_mean_motion_ddot": 0,
        "tle_line1": "1 30144U 99025SZ  25342.24879855  .00001262  00000+0  96231-3 0  9995",
        "tle_line2": "2 30144  99.0098 335.1562 0125878 303.1358  67.7825 13.91808279957787"
      },
      "geometry": {
        "type": "Point",
        "coordinates": [
          -16.93666931976851,
          -38.91144177469949
        ]
      }
    },
    {
      "type": "Feature",
      "properties": {
        "norad_id": 30145,
        "name": "FENGYUN 1C DEB",
        "group": "fengyun-1c-debris",
        "lat": 77.0529519334784,
        "lon": 46.97598912335486,
        "alt_km": 824.7784749480588,
        "timestamp": "2025-12-08T19:31:49.083825+00:00",
        "meta_object_name": "FENGYUN 1C DEB",
        "meta_object_id": "1999-025TA",
        "meta_epoch": "2025-12-08T07:33:23.581728",
        "meta_mean_motion": 14.13945828,
        "meta_eccentricity": 0.00921653,
        "meta_inclination": 99.2705,
        "meta_ra_of_asc_node": 91.7311,
        "meta_arg_of_pericenter": 160.8983,
        "meta_mean_anomaly": 262.9364,
        "meta_ephemeris_type": 0,
        "meta_classification_type": "U",
        "meta_norad_cat_id": 30145,
        "meta_element_set_no": 999,
        "meta_rev_at_epoch": 96133,
        "meta_bstar": 0.0041164919,
        "meta_mean_motion_dot": 8.098e-05,
        "meta_mean_motion_ddot": 0,
        "tle_line1": "1 30145U 99025TA  25342.31485627  .00008098  00000+0  41165-2 0  9993",
        "tle_line2": "2 30145  99.2705  91.7311 0092165 160.8983 262.9364 14.13945828961336"
      },
      "geometry": {
        "type": "Point",
        "coordinates": [
          46.97598912335486,
          77.0529519334784
        ]
      }
    },
    {
      "type": "Feature",
      "properties": {
        "norad_id": 30146,
        "name": "FENGYUN 1C DEB",
        "group": "fengyun-1c-debris",
        "lat": 72.72272959188186,
        "lon": 116.03663477234926,
        "alt_km": 864.6435377836951,
        "timestamp": "2025-12-08T19:31:49.083834+00:00",
        "meta_object_name": "FENGYUN 1C DEB",
        "meta_object_id": "1999-025TB",
        "meta_epoch": "2025-12-08T00:41:38.338944",
        "meta_mean_motion": 13.86587264,
        "meta_eccentricity": 0.0178735,
        "meta_inclination": 98.02,
        "meta_ra_of_asc_node": 142.3174,
        "meta_arg_of_pericenter": 135.9182,
        "meta_mean_anomaly": 344.952,
        "meta_ephemeris_type": 0,
        "meta_classification_type": "U",
        "meta_norad_cat_id": 30146,
        "meta_element_set_no": 999,
        "meta_rev_at_epoch": 95352,
        "meta_bstar": 0.0010182767,
        "meta_mean_motion_dot": 1.308e-05,
        "meta_mean_motion_ddot": 0,
        "tle_line1": "1 30146U 99025TB  25342.02891596  .00001308  00000+0  10183-2 0  9991",
        "tle_line2": "2 30146  98.0200 142.3174 0178735 135.9182 344.9520 13.86587264953528"
      },
      "geometry": {
        "type": "Point",
        "coordinates": [
          116.03663477234926,
          72.72272959188186
        ]
      }
    },
    {
      "type": "Feature",
      "properties": {
        "norad_id": 30148,
        "name": "FENGYUN 1C DEB",
        "group": "fengyun-1c-debris",
        "lat": 70.91800338030716,
        "lon": 102.92368125843153,
        "alt_km": 994.4340706531384,
        "timestamp": "2025-12-08T19:31:49.083843+00:00",
        "meta_object_name": "FENGYUN 1C DEB",
        "meta_object_id": "1999-025TD",
        "meta_epoch": "2025-12-07T23:00:33.966144",
        "meta_mean_motion": 13.88469841,
        "meta_eccentricity": 0.01348931,
        "meta_inclination": 99.545,
        "meta_ra_of_asc_node": 131.1521,
        "meta_arg_of_pericenter": 209.3333,
        "meta_mean_anomaly": 273.6083,
        "meta_ephemeris_type": 0,
        "meta_classification_type": "U",
        "meta_norad_cat_id": 30148,
        "meta_element_set_no": 999,
        "meta_rev_at_epoch": 95450,
        "meta_bstar": 0.0013681361,
        "meta_mean_motion_dot": 1.719e-05,
        "meta_mean_motion_ddot": 0,
        "tle_line1": "1 30148U 99025TD  25341.95872646  .00001719  00000+0  13681-2 0  9991",
        "tle_line2": "2 30148  99.5450 131.1521 0134893 209.3333 273.6083 13.88469841954509"
      },
      "geometry": {
        "type": "Point",
        "coordinates": [
          102.92368125843153,
          70.91800338030716
        ]
      }
    },
    {
      "type": "Feature",
      "properties": {
        "norad_id": 30150,
        "name": "FENGYUN 1C DEB",
        "group": "fengyun-1c-debris",
        "lat": -55.77529760451987,
        "lon": -74.50897600619739,
        "alt_km": 982.9904539959189,
        "timestamp": "2025-12-08T19:31:49.083852+00:00",
        "meta_object_name": "FENGYUN 1C DEB",
        "meta_object_id": "1999-025TF",
        "meta_epoch": "2025-12-08T08:14:50.604000",
        "meta_mean_motion": 13.86586257,
        "meta_eccentricity": 0.01465965,
        "meta_inclination": 98.9942,
        "meta_ra_of_asc_node": 118.5028,
        "meta_arg_of_pericenter": 348.0835,
        "meta_mean_anomaly": 64.8324,
        "meta_ephemeris_type": 0,
        "meta_classification_type": "U",
        "meta_norad_cat_id": 30150,
        "meta_element_set_no": 999,
        "meta_rev_at_epoch": 95397,
        "meta_bstar": 0.0008002154,
        "meta_mean_motion_dot": 9.69e-06,
        "meta_mean_motion_ddot": 0,
        "tle_line1": "1 30150U 99025TF  25342.34364125  .00000969  00000+0  80022-3 0  9996",
        "tle_line2": "2 30150  98.9942 118.5028 0146596 348.0835  64.8324 13.86586257953970"
      },
      "geometry": {
        "type": "Point",
        "coordinates": [
          -74.50897600619739,
          -55.77529760451987
        ]
      }
    },
    {
      "type": "Feature",
      "properties": {
        "norad_id": 30151,
        "name": "FENGYUN 1C DEB",
        "group": "fengyun-1c-debris",
        "lat": 69.39469781439063,
        "lon": -34.19594569778198,
        "alt_km": 1034.8959949512637,
        "timestamp": "2025-12-08T19:31:49.083861+00:00",
        "meta_object_name": "FENGYUN 1C DEB",
        "meta_object_id": "1999-025TG",
        "meta_epoch": "2025-12-08T00:22:24.263904",
        "meta_mean_motion": 13.84462197,
        "meta_eccentricity": 0.01631964,
        "meta_inclination": 99.0632,
        "meta_ra_of_asc_node": 350.1541,
        "meta_arg_of_pericenter": 291.5231,
        "meta_mean_anomaly": 122.6118,
        "meta_ephemeris_type": 0,
        "meta_classification_type": "U",
        "meta_norad_cat_id": 30151,
        "meta_element_set_no": 999,
        "meta_rev_at_epoch": 95180,
        "meta_bstar": 0.00098195742,
        "meta_mean_motion_dot": 1.176e-05,
        "meta_mean_motion_ddot": 0,
        "tle_line1": "1 30151U 99025TG  25342.01555861  .00001176  00000+0  98196-3 0  9992",
        "tle_line2": "2 30151  99.0632 350.1541 0163196 291.5231 122.6118 13.84462197951808"
      },
      "geometry": {
        "type": "Point",
        "coordinates": [
          -34.19594569778198,
          69.39469781439063
        ]
      }
    },
    {
      "type": "Feature",
      "properties": {
        "norad_id": 30152,
        "name": "FENGYUN 1C DEB",
        "group": "fengyun-1c-debris",
        "lat": 18.460399957859703,
        "lon": -162.44712500344306,
        "alt_km": 878.1285260728373,
        "timestamp": "2025-12-08T19:31:49.083870+00:00",
        "meta_object_name": "FENGYUN 1C DEB",
        "meta_object_id": "1999-025TH",
        "meta_epoch": "2025-12-08T03:58:01.444800",
        "meta_mean_motion": 13.96637895,
        "meta_eccentricity": 0.01614719,
        "meta_inclination": 99.0797,
        "meta_ra_of_asc_node": 199.9728,
        "meta_arg_of_pericenter": 97.9618,
        "meta_mean_anomaly": 263.9904,
        "meta_ephemeris_type": 0,
        "meta_classification_type": "U",
        "meta_norad_cat_id": 30152,
        "meta_element_set_no": 999,
        "meta_rev_at_epoch": 95314,
        "meta_bstar": 0.0028105981,
        "meta_mean_motion_dot": 4.306e-05,
        "meta_mean_motion_ddot": 0,
        "tle_line1": "1 30152U 99025TH  25342.16529450  .00004306  00000+0  28106-2 0  9995",
        "tle_line2": "2 30152  99.0797 199.9728 0161471  97.9618 263.9904 13.96637895953141"
      },
      "geometry": {
        "type": "Point",
        "coordinates": [
          -162.44712500344306,
          18.460399957859703
        ]
      }
    }
  ]
}